{"type": "FeatureCollection", "features": [ {"type": "Feature", "properties": {"norad_id": 31931, "name": "FENGYUN 1C DEB", "group": "fengyun-1c-debris", "lat": -47.40507907709797, "lon": -60.246228132153966, "alt_km": 811.2410339388698, "timestamp": "2025-12-04T23:34:06.007721+00:00", "meta": {"OBJECT_NAME": "FENGYUN 1C DEB", "OBJECT_ID": "1999-025CMG", "EPOCH": "2025-12-02T14:33:38.327904", "MEAN_MOTION": 13.42584114, "ECCENTRICITY": 0.04236639, "INCLINATION": 97.8124, "RA_OF_ASC_NODE": 289.3184, "ARG_OF_PERICENTER": 296.0415, "MEAN_ANOMALY": 59.7684, "EPHEMERIS_TYPE": 0, "CLASSIFICATION_TYPE": "U", "NORAD_CAT_ID": 31931, "ELEMENT_SET_NO": 999, "REV_AT_EPOCH": 65086, "BSTAR": 0.0015604157, "MEAN_MOTION_DOT": 1.474e-05, "MEAN_MOTION_DDOT": 0}, "tle": {"line1": "1 31931U 99025CMG 25336.60669361  .00001474  00000+0  15604-2 0  9991", "line2": "2 31931  97.8124 289.3184 0423663 296.0415  59.7684 13.42584114650863"}}, "geometry": {"type": "Point", "coordinates": [-60.246228132153966, -47.40507907709797]}}, {"type": "Feature", "properties": {"norad_id": 31934, "name": "FENGYUN 1C DEB", "group": "fengyun-1c-debris", "lat": -15.260257915874002, "lon": 29.586158850446623, "alt_km": 552.1135681261812, "timestamp": "2025-12-04T23:34:06.007731+00:00", "meta": {"OBJECT_NAME": "FENGYUN 1C DEB", "OBJECT_ID": "1999-025CMK", "EPOCH": "2025-12-04T09:16:56.352576", "MEAN_MOTION": 15.05606214, "ECCENTRICITY": 0.0038121, "INCLINATION": 98.8816, "RA_OF_ASC_NODE": 26.4564, "ARG_OF_PERICENTER": 260.5868, "MEAN_ANOMALY": 99.1044, "EPHEMERIS_TYPE": 0, "CLASSIFICATION_TYPE": "U", "NORAD_CAT_ID": 31934, "ELEMENT_SET_NO": 999, "REV_AT_EPOCH": 60717, "BSTAR": 0.0071095, "MEAN_MOTION_DOT": 0.00105581, "MEAN_MOTION_DDOT": 0}, "tle": {"line1": "1 31934U 99025CMK 25338.38676334  .00105581  00000+0  71095-2 0  9999", "line2": "2 31934  98.8816  26.4564 0038121 260.5868  99.1044 15.05606214607177"}}, "geometry": {"type": "Point", "coordinates": [29.586158850446623, -15.260257915874002]}}, {"type": "Feature", "properties": {"norad_id": 31937, "name": "FENGYUN 1C DEB", "group": "fengyun-1c-debris", "lat": 78.44054912002844, "lon": -59.69960763154375, "alt_km": 708.7262212706046, "timestamp": "2025-12-04T23:34:06.007741+00:00", "meta": {"OBJECT_NAME": "FENGYUN 1C DEB", "OBJECT_ID": "1999-025CMN", "EPOCH": "2025-12-02T12:38:21.327072", "MEAN_MOTION": 14.7792273, "ECCENTRICITY": 0.01632725, "INCLINATION": 99.2568, "RA_OF_ASC_NODE": 64.6002, "ARG_OF_PERICENTER": 329.3517, "MEAN_ANOMALY": 29.8228, "EPHEMERIS_TYPE": 0, "CLASSIFICATION_TYPE": "U", "NORAD_CAT_ID": 31937, "ELEMENT_SET_NO": 999, "REV_AT_EPOCH": 65918, "BSTAR": 0.00089596607, "MEAN_MOTION_DOT": 7.992e-05, "MEAN_MOTION_DDOT": 0}, "tle": {"line1": "1 31937U 99025CMN 25336.52663573  .00007992  00000+0  89597-3 0  9991", "line2": "2 31937  99.2568  64.6002 0163272 329.3517  29.8228 14.77922730659185"}}, "geometry": {"type": "Point", "coordinates": [-59.69960763154375, 78.44054912002844]}}, {"type": "Feature", "properties": {"norad_id": 31938, "name": "FENGYUN 1C DEB", "group": "fengyun-1c-debris", "lat": -76.48389899398062, "lon": 50.19674235247186, "alt_km": 693.5549288165739, "timestamp": "2025-12-04T23:34:06.007751+00:00", "meta": {"OBJECT_NAME": "FENGYUN 1C DEB", "OBJECT_ID": "1999-025CMP", "EPOCH": "2025-12-04T07:52:24.199104", "MEAN_MOTION": 14.95473125, "ECCENTRICITY": 0.0153467, "INCLINATION": 98.9308, "RA_OF_ASC_NODE": 8.593, "ARG_OF_PERICENTER": 93.1363, "MEAN_ANOMALY": 268.7426, "EPHEMERIS_TYPE": 0, "CLASSIFICATION_TYPE": "U", "NORAD_CAT_ID": 31938, "ELEMENT_SET_NO": 999, "REV_AT_EPOCH": 99010, "BSTAR": 0.00077847, "MEAN_MOTION_DOT": 0.0001085, "MEAN_MOTION_DDOT": 0}, "tle": {"line1": "1 31938U 99025CMP 25338.32805786  .00010850  00000+0  77847-3 0  9998", "line2": "2 31938  98.9308   8.5930 0153467  93.1363 268.7426 14.95473125990104"}}, "geometry": {"type": "Point", "coordinates": [50.19674235247186, -76.48389899398062]}}, {"type": "Feature", "properties": {"norad_id": 31944, "name": "FENGYUN 1C DEB", "group": "fengyun-1c-debris", "lat": -36.751725646207476, "lon": 133.23878448803413, "alt_km": 808.4593594115358, "timestamp": "2025-12-04T23:34:06.007761+00:00", "meta": {"OBJECT_NAME": "FENGYUN 1C DEB", "OBJECT_ID": "1999-025CMV", "EPOCH": "2025-12-03T04:21:09.092736", "MEAN_MOTION": 14.11759082, "ECCENTRICITY": 0.01516662, "INCLINATION": 99.2029, "RA_OF_ASC_NODE": 124.438, "ARG_OF_PERICENTER": 30.7997, "MEAN_ANOMALY": 147.0056, "EPHEMERIS_TYPE": 0, "CLASSIFICATION_TYPE": "U", "NORAD_CAT_ID": 31944, "ELEMENT_SET_NO": 999, "REV_AT_EPOCH": 62775, "BSTAR": 0.00074621414, "MEAN_MOTION_DOT": 1.469e-05, "MEAN_MOTION_DDOT": 0}, "tle": {"line1": "1 31944U 99025CMV 25337.18135524  .00001469  00000+0  74621-3 0  9997", "line2": "2 31944  99.2029 124.4380 0151666  30.7997 147.0056 14.11759082627754"}}, "geometry": {"type": "Point", "coordinates": [133.23878448803413, -36.751725646207476]}}, {"type": "Feature", "properties": {"norad_id": 31945, "name": "FENGYUN 1C DEB", "group": "fengyun-1c-debris", "lat": 60.29647623043935, "lon": 39.150722983049626, "alt_km": 832.9205677364298, "timestamp": "2025-12-04T23:34:06.007772+00:00", "meta": {"OBJECT_NAME": "FENGYUN 1C DEB", "OBJECT_ID": "1999-025CMW", "EPOCH": "2025-12-04T11:26:55.097376", "MEAN_MOTION": 14.20724546, "ECCENTRICITY": 0.0060469, "INCLINATION": 98.9641, "RA_OF_ASC_NODE": 54.7014, "ARG_OF_PERICENTER": 311.2778, "MEAN_ANOMALY": 48.32, "EPHEMERIS_TYPE": 0, "CLASSIFICATION_TYPE": "U", "NORAD_CAT_ID": 31945, "ELEMENT_SET_NO": 999, "REV_AT_EPOCH": 95078, "BSTAR": 0.0029592, "MEAN_MOTION_DOT": 6.459e-05, "MEAN_MOTION_DDOT": 0}, "tle": {"line1": "1 31945U 99025CMW 25338.47702659  .00006459  00000+0  29592-2 0  9990", "line2": "2 31945  98.9641  54.7014 0060469 311.2778  48.3200 14.20724546950787"}}, "geometry": {"type": "Point", "coordinates": [39.150722983049626, 60.29647623043935]}}, {"type": "Feature", "properties": {"norad_id": 31946, "name": "FENGYUN 1C DEB", "group": "fengyun-1c-debris", "lat": 55.911212995589636, "lon": 25.8262831500479, "alt_km": 774.1829030270583, "timestamp": "2025-12-04T23:34:06.007782+00:00", "meta": {"OBJECT_NAME": "FENGYUN 1C DEB", "OBJECT_ID": "1999-025CMX", "EPOCH": "2025-12-03T10:00:15.109920", "MEAN_MOTION": 14.16359084, "ECCENTRICITY": 0.0083398, "INCLINATION": 98.8988, "RA_OF_ASC_NODE": 37.6477, "ARG_OF_PERICENTER": 76.7615, "MEAN_ANOMALY": 284.2845, "EPHEMERIS_TYPE": 0, "CLASSIFICATION_TYPE": "U", "NORAD_CAT_ID": 31946, "ELEMENT_SET_NO": 999, "REV_AT_EPOCH": 63876, "BSTAR": 0.0017748272, "MEAN_MOTION_DOT": 3.603e-05, "MEAN_MOTION_DDOT": 0}, "tle": {"line1": "1 31946U 99025CMX 25337.41684155  .00003603  00000+0  17748-2 0  9992", "line2": "2 31946  98.8988  37.6477 0083398  76.7615 284.2845 14.16359084638766"}}, "geometry": {"type": "Point", "coordinates": [25.8262831500479, 55.911212995589636]}}, {"type": "Feature", "properties": {"norad_id": 31948, "name": "FENGYUN 1C DEB", "group": "fengyun-1c-debris", "lat": 68.49256292109217, "lon": -116.3242919132962, "alt_km": 783.7894784458204, "timestamp": "2025-12-04T23:34:06.007792+00:00", "meta": {"OBJECT_NAME": "FENGYUN 1C DEB", "OBJECT_ID": "1999-025CMZ", "EPOCH": "2025-12-02T23:07:31.547712", "MEAN_MOTION": 14.28182343, "ECCENTRICITY": 0.00237776, "INCLINATION": 99.3956, "RA_OF_ASC_NODE": 36.6595, "ARG_OF_PERICENTER": 50.177, "MEAN_ANOMALY": 126.8754, "EPHEMERIS_TYPE": 0, "CLASSIFICATION_TYPE": "U", "NORAD_CAT_ID": 31948, "ELEMENT_SET_NO": 999, "REV_AT_EPOCH": 94888, "BSTAR": 0.0019459046, "MEAN_MOTION_DOT": 4.812e-05, "MEAN_MOTION_DDOT": 0}, "tle": {"line1": "1 31948U 99025CMZ 25336.96355958  .00004812  00000+0  19459-2 0  9993", "line2": "2 31948  99.3956  36.6595 0023777  50.1770 126.8754 14.28182343948884"}}, "geometry": {"type": "Point", "coordinates": [-116.3242919132962, 68.49256292109217]}}, {"type": "Feature", "properties": {"norad_id": 31949, "name": "FENGYUN 1C DEB", "group": "fengyun-1c-debris", "lat": -66.33505149916505, "lon": 124.73091024763107, "alt_km": 754.8812477510801, "timestamp": "2025-12-04T23:34:06.007802+00:00", "meta": {"OBJECT_NAME": "FENGYUN 1C DEB", "OBJECT_ID": "1999-025CNA", "EPOCH": "2025-11-23T05:03:27.897984", "MEAN_MOTION": 14.1687356, "ECCENTRICITY": 0.01252295, "INCLINATION": 98.5419, "RA_OF_ASC_NODE": 313.4803, "ARG_OF_PERICENTER": 269.0533, "MEAN_ANOMALY": 89.6292, "EPHEMERIS_TYPE": 0, "CLASSIFICATION_TYPE": "U", "NORAD_CAT_ID": 31949, "ELEMENT_SET_NO": 999, "REV_AT_EPOCH": 95228, "BSTAR": 0.00041514195, "MEAN_MOTION_DOT": 8.56e-06, "MEAN_MOTION_DDOT": 0}, "tle": {"line1": "1 31949U 99025CNA 25327.21073956  .00000856  00000+0  41514-3 0  9999", "line2": "2 31949  98.5419 313.4803 0125229 269.0533  89.6292 14.16873560952288"}}, "geometry": {"type": "Point", "coordinates": [124.73091024763107, -66.33505149916505]}}, {"type": "Feature", "properties": {"norad_id": 31952, "name": "FENGYUN 1C DEB", "group": "fengyun-1c-debris", "lat": 71.54319602047867, "lon": -56.25930579779999, "alt_km": 777.4403290206674, "timestamp": "2025-12-04T23:34:06.007813+00:00", "meta": {"OBJECT_NAME": "FENGYUN 1C DEB", "OBJECT_ID": "1999-025CND", "EPOCH": "2025-12-04T01:36:07.301952", "MEAN_MOTION": 14.53438816, "ECCENTRICITY": 0.01142254, "INCLINATION": 98.9556, "RA_OF_ASC_NODE": 94.5675, "ARG_OF_PERICENTER": 318.9045, "MEAN_ANOMALY": 40.3586, "EPHEMERIS_TYPE": 0, "CLASSIFICATION_TYPE": "U", "NORAD_CAT_ID": 31952, "ELEMENT_SET_NO": 999, "REV_AT_EPOCH": 97083, "BSTAR": 0.00085057064, "MEAN_MOTION_DOT": 3.805e-05, "MEAN_MOTION_DDOT": 0}, "tle": {"line1": "1 31952U 99025CND 25338.06675118  .00003805  00000+0  85057-3 0  9993", "line2": "2 31952  98.9556  94.5675 0114225 318.9045  40.3586 14.53438816970831"}}, "geometry": {"type": "Point", "coordinates": [-56.25930579779999, 71.54319602047867]}}]}